{"dragon": {"capsule": null, "mass_returned_kg": null, "mass_returned_lbs": null, "flight_time_sec": null, "manifest": null, "water_landing": null, "land_landing": null}, "name": "Iridium NEXT 7", "type": "Satellite", "reused": false, "launch": "5eb87d1fffd86e000604b36b", "customers": ["Iridium Communications"], "norad_ids": [43569, 43570, 43571, 43572, 43573, 43574, 43575, 43576, 43577, 43578], "nationalities": ["United States"], "manufacturers": ["Thales Alenia Space"], "mass_kg": 9600, "mass_lbs": 21164.38, "orbit": "PO", "reference_system": "geocentric", "regime": "low-earth", "longitude": null, "semi_major_axis_km": 7155.804, "eccentricity": 0.0002056, "periapsis_km": 776.197, "apoapsis_km": 779.14, "inclination_deg": 86.3987, "period_min": 100.403, "lifespan_years": 15, "epoch": "2022-01-29T11:27:38.000Z", "mean_motion": 14.34217946, "raan": 5.2794, "arg_of_pericenter": 80.583, "mean_anomaly": 279.5598, "id": "5eb0e4c9b6c3bb0006eeb229"}